[Satellite]
VERSION=1.1
NAME=Pegasus-1
NICKNAME=Pegasus-1
TLE1=1 41846U 16066F   20156.41404136  .00000194  00000-0  40843-4 0  9996
TLE2=2 41846 098.6622 206.3303 0365595 272.0408 083.8960 14.37764219187094
STATUS=0
